KUIPER-00079            
1 64826U 25151L   26008.66671296 -.00044293  00000+0 -58086-2 0  9991
2 64826  51.8973 205.9898 0003098  74.0903 329.6936 14.80005553  4918
KUIPER-00080            
1 64827U 25151M   26008.55714167 -.00004812  00000+0 -60289-3 0  9997
2 64827  51.8982 206.4782 0006454  67.5085 292.6560 14.79882892 26401
KUIPER-00082            
1 64828U 25151N   26008.53686298  .00027609  00000+0  36334-2 0  9999
2 64828  51.9001 194.0885 0002163 118.0388 242.0793 14.79958349 26578
KUIPER-00083            
1 64829U 25151P   26008.66671296 -.00020343  00000+0 -26500-2 0  9990
2 64829  51.8990 201.0069 0003920  87.2130 288.2065 14.79886364  5525
KUIPER-00084            
1 64830U 25151Q   26008.85566405  .00003564  00000+0  49586-3 0  9992
2 64830  51.8985 210.1566 0008962  26.6332 333.5089 14.79966077 26372
KUIPER-00085            
1 64831U 25151R   26008.70568501  .00003254  00000+0  45569-3 0  9999
2 64831  51.9018 193.3594 0007973  68.9764 291.2051 14.79933530 26594
KUIPER-00086            
1 64832U 25151S   26008.69493348  .00003428  00000+0  47828-3 0  9997
2 64832  51.9008 203.3903 0011235  45.6540 314.5341 14.79935803 26451
KUIPER-00087            
1 64833U 25151T   26008.71381365  .00003526  00000+0  49091-3 0  9999
2 64833  51.8988 185.7950 0000623  94.9783 265.1250 14.79961155 26693
